     2.100          NAVIGATION                              RINEX VERSION / TYPE
fic2rin                                 11/09/2010 01:01:31 PGM / RUN BY / DATE
                                                            END OF HEADER
 2 10 11  8 23 59 28.0  .301111955196D-03  .250111042988D-11  .000000000000D+00
     .160000000000D+02 -.171875000000D+02  .531272129617D-08  .553393323967D-01
    -.840052962303D-06  .976369192358D-02  .762939453125D-05  .515365806389D+04
     .172768000000D+06  .113621354103D-06  .262743885649D+01  .335276126862D-07
     .939593358452D+00  .221625000000D+03 -.313387673941D+01 -.837677749783D-08
    -.435375277985D-09  .100000000000D+01  .160900000000D+04  .000000000000D+00
     .240000000000D+01  .000000000000D+00 -.172294676304D-07  .160000000000D+02
     .165606000000D+06  .400000000000D+01
 4 10 11  8 23 59 44.0  .214736443013D-03  .966338120634D-11  .000000000000D+00
     .300000000000D+01 -.182812500000D+02  .518521598506D-08  .302883170778D+01
    -.100024044514D-05  .947260390967D-02  .811927020550D-05  .515377738190D+04
     .172784000000D+06 -.104308128357D-06  .264508939907D+01 -.134110450745D-06
     .938726942294D+00  .212906250000D+03  .671860188645D+00 -.807212195057D-08
    -.456090426568D-09  .100000000000D+01  .160900000000D+04  .000000000000D+00
     .240000000000D+01  .000000000000D+00 -.605359673500D-08  .300000000000D+01
     .165606000000D+06  .400000000000D+01
10 10 11  8 23 59 44.0 -.574323348701D-04 -.102318153949D-11  .000000000000D+00
     .490000000000D+02  .100250000000D+03  .456483300076D-08  .191302306411D+01
     .525452196598D-05  .959021213930D-02  .100899487734D-04  .515354621696D+04
     .172784000000D+06 -.244006514549D-06 -.257065168285D+01  .000000000000D+00
     .951693683462D+00  .181875000000D+03  .666435735221D+00 -.796604610351D-08
    -.742888087128D-10  .100000000000D+01  .160900000000D+04  .000000000000D+00
     .240000000000D+01  .000000000000D+00 -.279396772385D-08  .490000000000D+02
     .165606000000D+06  .400000000000D+01
11 10 11  8 23 59 44.0 -.102516729385D-03 -.272848410532D-11  .000000000000D+00
     .200000000000D+01 -.236562500000D+02  .652812906564D-08 -.174100163148D+01
    -.132061541080D-05  .114048173418D-01  .514462590218D-05  .515346882629D+04
     .172784000000D+06  .184401869774D-06  .240049306574D+01 -.689178705215D-07
     .888098378737D+00  .234781250000D+03  .877303141963D+00 -.884001107909D-08
    -.161435295857D-09  .100000000000D+01  .160900000000D+04  .000000000000D+00
     .240000000000D+01  .000000000000D+00 -.116415321827D-07  .200000000000D+01
     .165606000000D+06  .400000000000D+01
 1 10 11  9  0  0  0.0 -.180379487574D-03 -.363797880709D-11  .000000000000D+00
     .960000000000D+02 -.840937500000D+02  .401588156330D-08  .154904841108D+01
    -.433437526226D-05  .439962034579D-02  .107511878014D-04  .515353058052D+04
     .172800000000D+06 -.540167093277D-07  .546159280378D+00 -.130385160446D-07
     .966799526852D+00  .177468750000D+03  .948689610445D+00 -.772639326386D-08
     .310370071016D-09  .100000000000D+01  .160900000000D+04  .000000000000D+00
     .240000000000D+01  .630000000000D+02 -.190921127796D-07  .960000000000D+02
     .165606000000D+06  .400000000000D+01
 3 10 11  9  0  0  0.0  .632619950920D-03  .511590769747D-11  .000000000000D+00
     .105000000000D+03  .825000000000D+01  .556023160596D-08 -.493861116212D-01
     .519677996635D-06  .138117561582D-01  .681541860104D-05  .515361164856D+04
     .172800000000D+06 -.540167093277D-07  .147226502861D+01  .203028321266D-06
     .927392563154D+00  .233406250000D+03  .105693566045D+01 -.864214569434D-08
     .495020619596D-09  .100000000000D+01  .160900000000D+04  .000000000000D+00
     .240000000000D+01  .000000000000D+00 -.465661287308D-08  .105000000000D+03
     .165606000000D+06  .400000000000D+01
 5 10 11  9  0  0  0.0 -.644102692604D-04 -.602540239925D-11  .000000000000D+00
     .310000000000D+02  .107343750000D+03  .450340187048D-08  .175216276601D+01
     .572949647903D-05  .203616661020D-02  .993721187115D-05  .515356320000D+04
     .172800000000D+06  .465661287308D-07 -.259546713151D+01  .763684511185D-07
     .956721196009D+00  .186468750000D+03  .172178746062D+00 -.792175854447D-08
    -.119647840956D-09  .100000000000D+01  .160900000000D+04  .000000000000D+00
     .240000000000D+01  .000000000000D+00 -.977888703346D-08  .310000000000D+02
     .165606000000D+06  .400000000000D+01
 6 10 11  9  0  0  0.0  .426923856139D-03 -.127329258248D-10  .000000000000D+00
     .900000000000D+02  .765625000000D+01  .532593613233D-08  .210383278581D+01
     .368803739548D-06  .616514822468D-02  .627897679806D-05  .515364805031D+04
     .172800000000D+06  .108033418655D-06  .154428869300D+01  .242143869400D-07
     .934623464396D+00  .243593750000D+03 -.918535686984D+00 -.823177145775D-08
     .392516349881D-09  .100000000000D+01  .160900000000D+04  .000000000000D+00
     .240000000000D+01  .000000000000D+00 -.465661287308D-08  .900000000000D+02
     .165606000000D+06  .400000000000D+01
 7 10 11  9  0  0  0.0 -.798609107733D-06  .341060513165D-12  .000000000000D+00
     .460000000000D+02 -.109375000000D+03  .414374403214D-08 -.166210405735D+01
    -.574439764023D-05  .417914695572D-02  .430829823017D-05  .515368915749D+04
     .172800000000D+06 -.279396772385D-07 -.492140845973D+00 -.633299350739D-07
     .973302041182D+00  .302968750000D+03 -.313668814466D+01 -.803569186168D-08
    -.227152318949D-09  .100000000000D+01  .160900000000D+04  .000000000000D+00
     .240000000000D+01  .000000000000D+00 -.102445483208D-07  .460000000000D+02
     .165606000000D+06  .400000000000D+01
 8 10 11  9  0  0  0.0  .690063461661D-05  .000000000000D+00  .000000000000D+00
     .480000000000D+02 -.113750000000D+03  .365693804043D-08 -.222544477660D+01
    -.598654150963D-05  .115346995881D-01  .531412661076D-05  .515365528297D+04
     .172800000000D+06 -.111758708954D-06 -.420816588083D+00 -.219792127609D-06
     .994860469509D+00  .294750000000D+03 -.311771525287D+01 -.775282293619D-08
    -.216437586923D-09  .100000000000D+01  .160900000000D+04  .000000000000D+00
     .240000000000D+01  .000000000000D+00 -.419095158577D-08  .480000000000D+02
     .165606000000D+06  .400000000000D+01
 9 10 11  9  0  0  0.0  .413642264903D-04  .227373675443D-11  .000000000000D+00
     .440000000000D+02 -.123531250000D+03  .389051919860D-08 -.234508247460D+01
    -.612996518612D-05  .169757453259D-01  .384636223316D-05  .515370196533D+04
     .172800000000D+06  .165775418282D-06 -.522078800300D+00  .949949026108D-07
     .982301889799D+00  .314062500000D+03  .155332287630D+01 -.773567936495D-08
    -.288940606965D-09  .100000000000D+01  .160900000000D+04  .000000000000D+00
     .240000000000D+01  .000000000000D+00 -.558793544769D-08  .440000000000D+02
     .165606000000D+06  .400000000000D+01
12 10 11  9  0  0  0.0 -.556875020266D-04  .352429196937D-11  .000000000000D+00
     .104000000000D+03 -.657500000000D+02  .381230165481D-08 -.161045301792D+01
    -.333227217197D-05  .331946567167D-02  .115092843771D-04  .515357754898D+04
     .172800000000D+06 -.912696123123D-07  .561579627748D+00  .316649675369D-07
     .972902661621D+00  .162812500000D+03 -.325340461176D+00 -.758924469393D-08
     .425732019162D-09  .100000000000D+01  .160900000000D+04  .000000000000D+00
     .240000000000D+01  .000000000000D+00 -.116415321827D-07  .104000000000D+03
     .165606000000D+06  .400000000000D+01
13 10 11  9  0  0  0.0  .292583368719D-03 -.102318153949D-11  .000000000000D+00
     .690000000000D+02  .645937500000D+02  .402731061080D-08  .803252834248D+00
     .321865081787D-05  .429343839642D-02  .203400850296D-05  .515368564796D+04
     .172800000000D+06 -.100582838058D-06 -.147058582979D+01 -.279396772385D-07
     .991253312902D+00  .355718750000D+03  .180524892953D+01 -.811176645906D-08
     .650027076237D-10  .100000000000D+01  .160900000000D+04  .000000000000D+00
     .240000000000D+01  .000000000000D+00 -.107102096081D-07  .690000000000D+02
     .165606000000D+06  .400000000000D+01
14 10 11  9  0  0  0.0  .105503015220D-03  .341060513165D-11  .000000000000D+00
     .110000000000D+02  .794375000000D+02  .427946397114D-08  .757560693181D+00
     .414811074734D-05  .574135861825D-02  .192970037460D-05  .515359301186D+04
     .172800000000D+06 -.409781932831D-07 -.149348026220D+01  .260770320892D-07
     .984413563771D+00  .356125000000D+03 -.209613856671D+01 -.832606109958D-08
     .528593446610D-10  .100000000000D+01  .160900000000D+04  .000000000000D+00
     .240000000000D+01  .000000000000D+00 -.884756445885D-08  .110000000000D+02
     .165606000000D+06  .400000000000D+01
15 10 11  9  0  0  0.0 -.185623299330D-03  .454747350886D-11  .000000000000D+00
     .107000000000D+03  .800937500000D+02  .494949188049D-08  .564841048537D+00
     .407360494137D-05  .297792197671D-02  .119581818581D-05  .515384738922D+04
     .172800000000D+06  .782310962677D-07 -.156288975928D+01 -.260770320892D-07
     .951831385015D+00  .348593750000D+03 -.201421142822D+00 -.855499920720D-08
     .489306095849D-10  .100000000000D+01  .160900000000D+04  .000000000000D+00
     .340000000000D+01  .000000000000D+00 -.977888703346D-08  .107000000000D+03
     .165606000000D+06  .400000000000D+01
16 10 11  9  0  0  0.0 -.124464742839D-03 -.329691829393D-11  .000000000000D+00
     .260000000000D+02 -.764687500000D+02  .383373111886D-08  .232154967155D+01
    -.385008752346D-05  .585113046691D-02  .108927488327D-04  .515369552040D+04
     .172800000000D+06 -.279396772385D-07  .579195469908D+00  .726431608200D-07
     .974013130551D+00  .178062500000D+03 -.162258635661D+00 -.754674292356D-08
     .311084386485D-09  .100000000000D+01  .160900000000D+04  .000000000000D+00
     .240000000000D+01  .000000000000D+00 -.977888703346D-08  .260000000000D+02
     .165606000000D+06  .400000000000D+01
